0 FENGYUN 1C DEB
1 31686U 99025CCU 13280.33846676  .00002032  00000-0  28193-3 0  3926
2 31686 098.7071 318.4013 0428282 268.9599 086.2849 14.31736998336619
0 FENGYUN 1C DEB
1 31686U 99025CCU 13281.31685020  .00002083  00000-0  29031-3 0  3938
2 31686 098.7054 319.3845 0427149 266.0111 089.2243 14.31742437336754
0 FENGYUN 1C DEB
1 31686U 99025CCU 13283.34351430  .00002107  00000-0  29318-3 0  3944
2 31686 098.7079 321.4322 0427334 260.1210 095.1599 14.31751827337042
0 FENGYUN 1C DEB
1 31686U 99025CCU 13286.90763787  .00002153  00000-0  29951-3 0  3956
2 31686 098.7073 325.0172 0427058 249.6747 105.8163 14.31768853337558
0 FENGYUN 1C DEB
1 31686U 99025CCU 13288.93429188  .00002173  00000-0  30228-3 0  3967
2 31686 098.7070 327.0579 0426884 243.6674 112.0189 14.31778493337848
0 FENGYUN 1C DEB
1 31686U 99025CCU 13289.35359742  .00002251  00000-0  31258-3 0  3974
2 31686 098.7038 327.4673 0426965 242.4878 113.3059 14.31783295337907
0 FENGYUN 1C DEB
1 31686U 99025CCU 13290.33196471  .00002385  00000-0  32741-3 0  3989
2 31686 098.6994 328.4399 0428795 240.0124 115.9245 14.31793017338048
0 FENGYUN 1C DEB
1 31686U 99025CCU 13291.31030997  .00002454  00000-0  33766-3 0  3994
2 31686 098.7014 329.4248 0428122 236.8088 119.1869 14.31800385338182
0 FENGYUN 1C DEB
1 31686U 99025CCU 13293.33693155  .00002524  00000-0  34493-3 0  4008
2 31686 098.7000 331.4552 0429173 230.8127 125.4822 14.31812983338471
